GLOBALSTAR M068 [-]     
1 32266U 07048D   24038.69406196 -.00000064  00000+0  21924-3 0  9997
2 32266  51.9913  12.6272 0001031 113.6932  58.3547 12.62778175754957
GLOBALSTAR M079 [+]     
1 37188U 10054A   24038.71212615 -.00000098  00000+0  33492-4 0  9991
2 37188  52.0012 208.0915 0000749  89.7827 283.8331 12.62266361613884
GLOBALSTAR M074 [+]     
1 37189U 10054B   24038.73854934 -.00000104  00000+0 -22843-5 0  9998
2 37189  51.9990 207.4108 0001045  94.3217 279.0777 12.62265165614490
GLOBALSTAR M076 [+]     
1 37190U 10054C   24038.76524240 -.00000085  00000+0  10426-3 0  9996
2 37190  52.0004 207.4581 0001023  63.5606 309.6323 12.62274653614210
GLOBALSTAR M077 [+]     
1 37191U 10054D   24039.30714072 -.00000113  00000+0 -49892-4 0  9995
2 37191  52.0062 162.5204 0000967 106.0667 271.2070 12.62269278615383
GLOBALSTAR M075 [+]     
1 37192U 10054E   24038.87771692 -.00000069  00000+0  19428-3 0  9998
2 37192  51.9925 249.6500 0000784  79.8774  24.9615 12.62270565613454
GLOBALSTAR M073 [+]     
1 37193U 10054F   24039.50490530 -.00000120  00000+0 -88408-4 0  9993
2 37193  52.0051 161.1752 0000858 105.9298 332.6416 12.62272009615419
GLOBALSTAR M083 [+]     
1 37739U 11033A   24039.52419600 -.00000093  00000+0  60721-4 0  9994
2 37739  51.9853 110.5259 0000676 141.5994 324.1585 12.62265687584748
GLOBALSTAR M088 [+]     
1 37740U 11033B   24039.35235263 -.00000103  00000+0  16199-5 0  9991
2 37740  51.9758  16.9560 0000110 125.9262  39.1511 12.62264537580195
GLOBALSTAR M091 [+]     
1 37741U 11033C   24038.62899028 -.00000091  00000+0  68852-4 0  9994
2 37741  52.0025 341.8305 0000136  68.9865 346.9563 12.62270791580606
GLOBALSTAR M085 [+]     
1 37742U 11033D   24039.43299675 -.00000063  00000+0  22944-3 0  9997
2 37742  51.9871 290.8618 0000492  73.9647  96.8570 12.62267530581701
GLOBALSTAR M081 [+]     
1 37743U 11033E   24039.04977762 -.00000065  00000+0  21807-3 0  9994
2 37743  51.9964 294.5096 0000464  45.0653  63.8939 12.62269239581691
GLOBALSTAR M089 [+]     
1 37744U 11033F   24038.91013550 -.00000070  00000+0  18797-3 0  9996
2 37744  51.9907 249.2540 0001061  62.4572 311.9262 12.62254240582140
GLOBALSTAR M084 [+]     
1 38040U 11080A   24038.52727889 -.00000097  00000+0  35677-4 0  9998
2 38040  52.0005 117.4439 0000774  96.3988 276.4836 12.62270637560079
GLOBALSTAR M080 [+]     
1 38041U 11080B   24039.38659666 -.00000096  00000+0  41698-4 0  9990
2 38041  52.0055 116.2615 0000686  83.7000 355.4075 12.62268712560440
GLOBALSTAR M082 [+]     
1 38042U 11080C   24038.86554718 -.00000089  00000+0  80163-4 0  9997
2 38042  52.0078  73.2406 0000897 158.9914  11.8285 12.62265750560949
GLOBALSTAR M092 [+]     
1 38043U 11080D   24038.64643200 -.00000108  00000+0 -22675-4 0  9996
2 38043  52.0075 164.2595 0001096  99.1954 273.7141 12.62276328559377
GLOBALSTAR M090 [+]     
1 38044U 11080E   24039.33218569 -.00000081  00000+0  12977-3 0  9992
2 38044  51.9890  66.2650 0000524 151.0443 222.1766 12.62265990561164
GLOBALSTAR M086 [+]     
1 38045U 11080F   24039.35938045 -.00000084  00000+0  10966-3 0  9992
2 38045  51.9900  66.6957 0000548 301.1275  74.9927 12.62266985561176
GLOBALSTAR M097 [+]     
1 39072U 13005A   24039.22370473 -.00000096  00000+0  45362-4 0  9995
2 39072  52.0075 341.1528 0000173  55.8059 304.2824 12.62260392508389
GLOBALSTAR M093 [+]     
1 39073U 13005B   24038.95963925 -.00000089  00000+0  83571-4 0  9991
2 39073  51.9839 336.0524 0000105  25.7153 334.3718 12.62260606508341
GLOBALSTAR M094 [+]     
1 39074U 13005C   24038.88054007 -.00000054  00000+0  27613-3 0  9992
2 39074  51.9936 250.1805 0000695  79.7627 280.3318 12.62262940509842
GLOBALSTAR M096 [+]     
1 39075U 13005D   24038.89392561 -.00000065  00000+0  21909-3 0  9998
2 39075  52.0081 298.2703 0000385  56.4756 303.6147 12.62272275508746
GLOBALSTAR M078 [+]     
1 39076U 13005E   24038.63016997 -.00000101  00000+0  13898-4 0  9997
2 39076  51.9893  24.2541 0001144 145.4840 214.6101 12.62259630507335
GLOBALSTAR M095 [+]     
1 39077U 13005F   24039.21041933 -.00000104  00000+0  11827-5 0  9995
2 39077  51.9824  19.9270 0000578 175.1233 184.9639 12.62262993507629
GLOBALSTAR M087 [+]     
1 52888U 22064A   24038.86647710 -.00000063  00000+0  12419-3 0  9990
2 52888  51.9769 302.8029 0010039  36.2600 323.8979 13.37564598 80082
